{
  "type": "FeatureCollection",
  "features": [
    {
      "type": "Feature",
      "properties": {
        "norad_id": 38867,
        "name": "INTELSAT 23 (IS-23)",
        "group": "intelsat",
        "lat": -0.02971303846635947,
        "lon": -40.48343966057204,
        "alt_km": 35784.34926193761,
        "timestamp": "2025-12-20T18:51:31.385661+00:00",
        "meta_object_name": "INTELSAT 23 (IS-23)",
        "meta_object_id": "2012-057A",
        "meta_epoch": "2025-12-20T11:15:57.398976",
        "meta_mean_motion": 1.00269534,
        "meta_eccentricity": 6.091e-05,
        "meta_inclination": 0.0148,
        "meta_ra_of_asc_node": 49.0714,
        "meta_arg_of_pericenter": 249.8393,
        "meta_mean_anomaly": 266.4118,
        "meta_ephemeris_type": 0,
        "meta_classification_type": "U",
        "meta_norad_cat_id": 38867,
        "meta_element_set_no": 999,
        "meta_rev_at_epoch": 4816,
        "meta_bstar": 0,
        "meta_mean_motion_dot": -2.61e-06,
        "meta_mean_motion_ddot": 0,
        "tle_line1": "1 38867U 12057A   25354.46941434 -.00000261  00000+0  00000+0 0  9999",
        "tle_line2": "2 38867   0.0148  49.0714 0000609 249.8393 266.4118  1.00269534 48162"
      },
      "geometry": {
        "type": "Point",
        "coordinates": [
          -40.48343966057204,
          -0.02971303846635947
        ]
      }
    },
    {
      "type": "Feature",
      "properties": {
        "norad_id": 39360,
        "name": "FM-6",
        "group": "intelsat",
        "lat": -0.01676055765602551,
        "lon": -103.6329206157432,
        "alt_km": 35782.05288512765,
        "timestamp": "2025-12-20T18:51:31.385672+00:00",
        "meta_object_name": "FM-6",
        "meta_object_id": "2013-058A",
        "meta_epoch": "2025-12-20T10:57:59.119200",
        "meta_mean_motion": 1.00274457,
        "meta_eccentricity": 0.00029342,
        "meta_inclination": 0.0121,
        "meta_ra_of_asc_node": 67.0119,
        "meta_arg_of_pericenter": 114.7093,
        "meta_mean_anomaly": 315.9111,
        "meta_ephemeris_type": 0,
        "meta_classification_type": "U",
        "meta_norad_cat_id": 39360,
        "meta_element_set_no": 999,
        "meta_rev_at_epoch": 4428,
        "meta_bstar": 0,
        "meta_mean_motion_dot": 6e-08,
        "meta_mean_motion_ddot": 0,
        "tle_line1": "1 39360U 13058A   25354.45693425  .00000006  00000+0  00000+0 0  9999",
        "tle_line2": "2 39360   0.0121  67.0119 0002934 114.7093 315.9111  1.00274457 44283"
      },
      "geometry": {
        "type": "Point",
        "coordinates": [
          -103.6329206157432,
          -0.01676055765602551
        ]
      }
    },
    {
      "type": "Feature",
      "properties": {
        "norad_id": 40271,
        "name": "INTELSAT 30 (IS-30)",
        "group": "intelsat",
        "lat": -0.03915171587216463,
        "lon": -82.56004378346135,
        "alt_km": 35790.75058324282,
        "timestamp": "2025-12-20T18:51:31.385684+00:00",
        "meta_object_name": "INTELSAT 30 (IS-30)",
        "meta_object_id": "2014-062A",
        "meta_epoch": "2025-12-20T12:34:47.341056",
        "meta_mean_motion": 1.00276751,
        "meta_eccentricity": 0.00014642,
        "meta_inclination": 0.0135,
        "meta_ra_of_asc_node": 19.8548,
        "meta_arg_of_pericenter": 64.3977,
        "meta_mean_anomaly": 98.7545,
        "meta_ephemeris_type": 0,
        "meta_classification_type": "U",
        "meta_norad_cat_id": 40271,
        "meta_element_set_no": 999,
        "meta_rev_at_epoch": 500,
        "meta_bstar": 0,
        "meta_mean_motion_dot": -1.28e-06,
        "meta_mean_motion_ddot": 0,
        "tle_line1": "1 40271U 14062A   25354.52415904 -.00000128  00000+0  00000+0 0  9996",
        "tle_line2": "2 40271   0.0135  19.8548 0001464  64.3977  98.7545  1.00276751  5003"
      },
      "geometry": {
        "type": "Point",
        "coordinates": [
          -82.56004378346135,
          -0.03915171587216463
        ]
      }
    },
    {
      "type": "Feature",
      "properties": {
        "norad_id": 40333,
        "name": "DIRECTV 14",
        "group": "intelsat",
        "lat": -0.044672216005997696,
        "lon": -86.72826119190151,
        "alt_km": 35787.43490853384,
        "timestamp": "2025-12-20T18:51:31.385695+00:00",
        "meta_object_name": "DIRECTV 14",
        "meta_object_id": "2014-078B",
        "meta_epoch": "2025-12-20T12:09:57.950208",
        "meta_mean_motion": 1.00270832,
        "meta_eccentricity": 3.933e-05,
        "meta_inclination": 0.0187,
        "meta_ra_of_asc_node": 347.3477,
        "meta_arg_of_pericenter": 155.8476,
        "meta_mean_anomaly": 29.4192,
        "meta_ephemeris_type": 0,
        "meta_classification_type": "U",
        "meta_norad_cat_id": 40333,
        "meta_element_set_no": 999,
        "meta_rev_at_epoch": 4025,
        "meta_bstar": 0,
        "meta_mean_motion_dot": -1.02e-06,
        "meta_mean_motion_ddot": 0,
        "tle_line1": "1 40333U 14078B   25354.50692072 -.00000102  00000+0  00000+0 0  9995",
        "tle_line2": "2 40333   0.0187 347.3477 0000393 155.8476  29.4192  1.00270832 40258"
      },
      "geometry": {
        "type": "Point",
        "coordinates": [
          -86.72826119190151,
          -0.044672216005997696
        ]
      }
    },
    {
      "type": "Feature",
      "properties": {
        "norad_id": 40663,
        "name": "DIRECTV 15",
        "group": "intelsat",
        "lat": -0.05167008883342063,
        "lon": -90.39447710471073,
        "alt_km": 35787.72653643011,
        "timestamp": "2025-12-20T18:51:31.385706+00:00",
        "meta_object_name": "DIRECTV 15",
        "meta_object_id": "2015-026A",
        "meta_epoch": "2025-12-20T12:06:43.368768",
        "meta_mean_motion": 1.00269898,
        "meta_eccentricity": 3.215e-05,
        "meta_inclination": 0.0255,
        "meta_ra_of_asc_node": 13.1615,
        "meta_arg_of_pericenter": 112.234,
        "meta_mean_anomaly": 42.7419,
        "meta_ephemeris_type": 0,
        "meta_classification_type": "U",
        "meta_norad_cat_id": 40663,
        "meta_element_set_no": 999,
        "meta_rev_at_epoch": 3867,
        "meta_bstar": 0,
        "meta_mean_motion_dot": 0,
        "meta_mean_motion_ddot": 0,
        "tle_line1": "1 40663U 15026A   25354.50466862  .00000000  00000+0  00000+0 0  9997",
        "tle_line2": "2 40663   0.0255  13.1615 0000321 112.2340  42.7419  1.00269898 38673"
      },
      "geometry": {
        "type": "Point",
        "coordinates": [
          -90.39447710471073,
          -0.05167008883342063
        ]
      }
    },
    {
      "type": "Feature",
      "properties": {
        "norad_id": 40664,
        "name": "SKY MEXICO-1",
        "group": "intelsat",
        "lat": -0.032906586870516195,
        "lon": -66.26965992940819,
        "alt_km": 35776.320236975895,
        "timestamp": "2025-12-20T18:51:31.385718+00:00",
        "meta_object_name": "SKY MEXICO-1",
        "meta_object_id": "2015-026B",
        "meta_epoch": "2025-12-20T12:05:09.617856",
        "meta_mean_motion": 1.00271901,
        "meta_eccentricity": 0.00023284,
        "meta_inclination": 0.0138,
        "meta_ra_of_asc_node": 342.5656,
        "meta_arg_of_pericenter": 303.1967,
        "meta_mean_anomaly": 266.1047,
        "meta_ephemeris_type": 0,
        "meta_classification_type": "U",
        "meta_norad_cat_id": 40664,
        "meta_element_set_no": 999,
        "meta_rev_at_epoch": 3866,
        "meta_bstar": 0,
        "meta_mean_motion_dot": -2.11e-06,
        "meta_mean_motion_ddot": 0,
        "tle_line1": "1 40664U 15026B   25354.50358354 -.00000211  00000+0  00000+0 0  9999",
        "tle_line2": "2 40664   0.0138 342.5656 0002328 303.1967 266.1047  1.00271901 38669"
      },
      "geometry": {
        "type": "Point",
        "coordinates": [
          -66.26965992940819,
          -0.032906586870516195
        ]
      }
    },
    {
      "type": "Feature",
      "properties": {
        "norad_id": 40874,
        "name": "INTELSAT 34 (IS-34)",
        "group": "intelsat",
        "lat": -0.016821357586805696,
        "lon": -43.00924016491562,
        "alt_km": 35789.30665386212,
        "timestamp": "2025-12-20T18:51:31.385729+00:00",
        "meta_object_name": "INTELSAT 34 (IS-34)",
        "meta_object_id": "2015-039A",
        "meta_epoch": "2025-12-20T11:15:19.958400",
        "meta_mean_motion": 1.00271747,
        "meta_eccentricity": 7.994e-05,
        "meta_inclination": 0.0138,
        "meta_ra_of_asc_node": 332.6184,
        "meta_arg_of_pericenter": 183.5358,
        "meta_mean_anomaly": 46.4832,
        "meta_ephemeris_type": 0,
        "meta_classification_type": "U",
        "meta_norad_cat_id": 40874,
        "meta_element_set_no": 999,
        "meta_rev_at_epoch": 3783,
        "meta_bstar": 0,
        "meta_mean_motion_dot": -2.62e-06,
        "meta_mean_motion_ddot": 0,
        "tle_line1": "1 40874U 15039A   25354.46898100 -.00000262  00000+0  00000+0 0  9995",
        "tle_line2": "2 40874   0.0138 332.6184 0000799 183.5358  46.4832  1.00271747 37839"
      },
      "geometry": {
        "type": "Point",
        "coordinates": [
          -43.00924016491562,
          -0.016821357586805696
        ]
      }
    }
  ]
}